IRIDIUM 166             
1 43570U 18061B   24126.25984537  .00000403  00000+0  13691-3 0  9992
2 43570  86.4015  19.7499 0002066  78.4712 281.6716 14.34219459302612
IRIDIUM 158             
1 43571U 18061C   24126.78627799  .00000369  00000+0  12486-3 0  9997
2 43571  86.4013  19.5392 0002043  88.3080 271.8349 14.34216936302669
IRIDIUM 165             
1 43572U 18061D   24126.18373178  .00000327  00000+0  10982-3 0  9994
2 43572  86.4016  19.8223 0001953  82.4126 277.7292 14.34218400302596
IRIDIUM 155             
1 43573U 18061E   24126.77359299  .00000413  00000+0  14044-3 0  9997
2 43573  86.4011  19.4835 0002166  80.3778 279.7662 14.34218374302654
IRIDIUM 154             
1 43574U 18061F   24126.61502799  .00000430  00000+0  14640-3 0  9997
2 43574  86.4015  19.6453 0002422  87.6297 272.5176 14.34220371302671
IRIDIUM 163             
1 43575U 18061G   24126.24715940  .00000427  00000+0  14545-3 0  9991
2 43575  86.4012  19.7385 0002243  84.0190 276.1261 14.34218753302595
IRIDIUM 156             
1 43576U 18061H   24126.22178575  .00000018  00000+0 -64224-6 0  9996
2 43576  86.4015  19.7553 0002103  84.4638 275.6798 14.34216708302588
IRIDIUM 164             
1 43577U 18061J   24126.62137770  .00000431  00000+0  14690-3 0  9990
2 43577  86.4014  19.6167 0002147  93.1901 266.9540 14.34217785302681
